{"type": "FeatureCollection", "features": [ {"type": "Feature", "properties": {"norad_id": 42741, "name": "EUTELSAT 172B", "group": "eutelsat", "lat": -0.013626258032698223, "lon": -122.07826406146286, "alt_km": 35787.63763816272, "timestamp": "2025-12-15T22:44:28.595396+00:00", "meta": {"OBJECT_NAME": "EUTELSAT 172B", "OBJECT_ID": "2017-029B", "EPOCH": "2025-12-15T08:17:38.739264", "MEAN_MOTION": 1.00270284, "ECCENTRICITY": 2.935e-05, "INCLINATION": 0.0146, "RA_OF_ASC_NODE": 58.9612, "ARG_OF_PERICENTER": 338.1576, "MEAN_ANOMALY": 343.5175, "EPHEMERIS_TYPE": 0, "CLASSIFICATION_TYPE": "U", "NORAD_CAT_ID": 42741, "ELEMENT_SET_NO": 999, "REV_AT_EPOCH": 3188, "BSTAR": 0, "MEAN_MOTION_DOT": 0, "MEAN_MOTION_DDOT": 0}, "tle": {"line1": "1 42741U 17029B   25349.34558726  .00000000  00000+0  00000+0 0  9998", "line2": "2 42741   0.0146  58.9612 0000293 338.1576 343.5175  1.00270284 31881"}}, "geometry": {"type": "Point", "coordinates": [-122.07826406146286, -0.013626258032698223]}}, {"type": "Feature", "properties": {"norad_id": 44334, "name": "EUTELSAT 7C", "group": "eutelsat", "lat": -0.0420064641912221, "lon": 72.93934664808329, "alt_km": 35799.207999448045, "timestamp": "2025-12-15T22:44:28.595408+00:00", "meta": {"OBJECT_NAME": "EUTELSAT 7C", "OBJECT_ID": "2019-034B", "EPOCH": "2025-12-15T06:34:24.872736", "MEAN_MOTION": 1.00271607, "ECCENTRICITY": 0.00031064, "INCLINATION": 0.0726, "RA_OF_ASC_NODE": 178.8165, "ARG_OF_PERICENTER": 69.7327, "MEAN_ANOMALY": 301.2248, "EPHEMERIS_TYPE": 0, "CLASSIFICATION_TYPE": "U", "NORAD_CAT_ID": 44334, "ELEMENT_SET_NO": 999, "REV_AT_EPOCH": 499, "BSTAR": 0, "MEAN_MOTION_DOT": 6.9e-07, "MEAN_MOTION_DDOT": 0}, "tle": {"line1": "1 44334U 19034B   25349.27389899  .00000069  00000+0  00000+0 0  9996", "line2": "2 44334   0.0726 178.8165 0003106  69.7327 301.2248  1.00271607  4991"}}, "geometry": {"type": "Point", "coordinates": [72.93934664808329, -0.0420064641912221]}}, {"type": "Feature", "properties": {"norad_id": 44624, "name": "EUTELSAT 5 WEST B", "group": "eutelsat", "lat": 0.08723386415276214, "lon": 60.97171394203171, "alt_km": 35798.33466648662, "timestamp": "2025-12-15T22:44:28.595420+00:00", "meta": {"OBJECT_NAME": "EUTELSAT 5 WEST B", "OBJECT_ID": "2019-067A", "EPOCH": "2025-12-15T01:22:44.632992", "MEAN_MOTION": 1.00272503, "ECCENTRICITY": 0.00032173, "INCLINATION": 0.0649, "RA_OF_ASC_NODE": 338.3897, "ARG_OF_PERICENTER": 286.2375, "MEAN_ANOMALY": 195.0282, "EPHEMERIS_TYPE": 0, "CLASSIFICATION_TYPE": "U", "NORAD_CAT_ID": 44624, "ELEMENT_SET_NO": 999, "REV_AT_EPOCH": 2259, "BSTAR": 0, "MEAN_MOTION_DOT": -2.2e-07, "MEAN_MOTION_DDOT": 0}, "tle": {"line1": "1 44624U 19067A   25349.05746103 -.00000022  00000+0  00000+0 0  9995", "line2": "2 44624   0.0649 338.3897 0003217 286.2375 195.0282  1.00272503 22593"}}, "geometry": {"type": "Point", "coordinates": [60.97171394203171, 0.08723386415276214]}}, {"type": "Feature", "properties": {"norad_id": 45027, "name": "EUTELSAT KONNECT", "group": "eutelsat", "lat": -0.00017092886904823394, "lon": 73.15902490965443, "alt_km": 35791.30725290129, "timestamp": "2025-12-15T22:44:28.595433+00:00", "meta": {"OBJECT_NAME": "EUTELSAT KONNECT", "OBJECT_ID": "2020-005B", "EPOCH": "2025-12-15T06:34:24.872736", "MEAN_MOTION": 1.00270081, "ECCENTRICITY": 0.00013523, "INCLINATION": 0.0699, "RA_OF_ASC_NODE": 96.7548, "ARG_OF_PERICENTER": 189.5483, "MEAN_ANOMALY": 263.6831, "EPHEMERIS_TYPE": 0, "CLASSIFICATION_TYPE": "U", "NORAD_CAT_ID": 45027, "ELEMENT_SET_NO": 999, "REV_AT_EPOCH": 2249, "BSTAR": 0, "MEAN_MOTION_DOT": 7e-07, "MEAN_MOTION_DDOT": 0}, "tle": {"line1": "1 45027U 20005B   25349.27389899  .00000070  00000+0  00000+0 0  9998", "line2": "2 45027   0.0699  96.7548 0001352 189.5483 263.6831  1.00270081 22497"}}, "geometry": {"type": "Point", "coordinates": [73.15902490965443, -0.00017092886904823394]}}, {"type": "Feature", "properties": {"norad_id": 49056, "name": "EUTELSAT QUANTUM", "group": "eutelsat", "lat": 0.027090914400293712, "lon": 113.65728638305065, "alt_km": 35800.288968181754, "timestamp": "2025-12-15T22:44:28.595445+00:00", "meta": {"OBJECT_NAME": "EUTELSAT QUANTUM", "OBJECT_ID": "2021-069B", "EPOCH": "2025-12-15T05:03:11.111328", "MEAN_MOTION": 1.00273146, "ECCENTRICITY": 0.00036196, "INCLINATION": 0.0112, "RA_OF_ASC_NODE": 356.0818, "ARG_OF_PERICENTER": 281.1432, "MEAN_ANOMALY": 290.4022, "EPHEMERIS_TYPE": 0, "CLASSIFICATION_TYPE": "U", "NORAD_CAT_ID": 49056, "ELEMENT_SET_NO": 999, "REV_AT_EPOCH": 1608, "BSTAR": 0, "MEAN_MOTION_DOT": 1.47e-06, "MEAN_MOTION_DDOT": 0}, "tle": {"line1": "1 49056U 21069B   25349.21054527  .00000147  00000+0  00000+0 0  9991", "line2": "2 49056   0.0112 356.0818 0003619 281.1432 290.4022  1.00273146 16089"}}, "geometry": {"type": "Point", "coordinates": [113.65728638305065, 0.027090914400293712]}}, {"type": "Feature", "properties": {"norad_id": 53765, "name": "EUTELSAT KONNECT VHTS", "group": "eutelsat", "lat": -0.005539659482310247, "lon": 68.68089447995318, "alt_km": 35796.54030435093, "timestamp": "2025-12-15T22:44:28.595457+00:00", "meta": {"OBJECT_NAME": "EUTELSAT KONNECT VHTS", "OBJECT_ID": "2022-110A", "EPOCH": "2025-12-15T06:33:09.991584", "MEAN_MOTION": 1.0027256, "ECCENTRICITY": 0.00026657, "INCLINATION": 0.0637, "RA_OF_ASC_NODE": 102.1934, "ARG_OF_PERICENTER": 128.1702, "MEAN_ANOMALY": 314.8436, "EPHEMERIS_TYPE": 0, "CLASSIFICATION_TYPE": "U", "NORAD_CAT_ID": 53765, "ELEMENT_SET_NO": 999, "REV_AT_EPOCH": 498, "BSTAR": 0, "MEAN_MOTION_DOT": 3.9e-07, "MEAN_MOTION_DDOT": 0}, "tle": {"line1": "1 53765U 22110A   25349.27303231  .00000039  00000+0  00000+0 0  9996", "line2": "2 53765   0.0637 102.1934 0002665 128.1702 314.8436  1.00272560  4987"}}, "geometry": {"type": "Point", "coordinates": [68.68089447995318, -0.005539659482310247]}}, {"type": "Feature", "properties": {"norad_id": 54048, "name": "EUTELSAT HOTBIRD 13F", "group": "eutelsat", "lat": 0.04597697161405144, "lon": 78.97163765163035, "alt_km": 35783.84413804149, "timestamp": "2025-12-15T22:44:28.595469+00:00", "meta": {"OBJECT_NAME": "EUTELSAT HOTBIRD 13F", "OBJECT_ID": "2022-134A", "EPOCH": "2025-12-14T22:02:26.653056", "MEAN_MOTION": 1.0027139, "ECCENTRICITY": 0.00023413, "INCLINATION": 0.0492, "RA_OF_ASC_NODE": 293.4772, "ARG_OF_PERICENTER": 68.5165, "MEAN_ANOMALY": 65.4415, "EPHEMERIS_TYPE": 0, "CLASSIFICATION_TYPE": "U", "NORAD_CAT_ID": 54048, "ELEMENT_SET_NO": 999, "REV_AT_EPOCH": 1152, "BSTAR": 0, "MEAN_MOTION_DOT": 1.07e-06, "MEAN_MOTION_DDOT": 0}, "tle": {"line1": "1 54048U 22134A   25348.91836404  .00000107  00000+0  00000+0 0  9996", "line2": "2 54048   0.0492 293.4772 0002341  68.5165  65.4415  1.00271390 11520"}}, "geometry": {"type": "Point", "coordinates": [78.97163765163035, 0.04597697161405144]}}, {"type": "Feature", "properties": {"norad_id": 54225, "name": "EUTELSAT HOTBIRD 13G", "group": "eutelsat", "lat": 0.005437099718870199, "lon": 78.92114481041266, "alt_km": 35787.05240931865, "timestamp": "2025-12-15T22:44:28.595482+00:00", "meta": {"OBJECT_NAME": "EUTELSAT HOTBIRD 13G", "OBJECT_ID": "2022-146A", "EPOCH": "2025-12-15T01:27:51.643296", "MEAN_MOTION": 1.00271037, "ECCENTRICITY": 0.00016771, "INCLINATION": 0.0491, "RA_OF_ASC_NODE": 234.702, "ARG_OF_PERICENTER": 301.0277, "MEAN_ANOMALY": 303.1958, "EPHEMERIS_TYPE": 0, "CLASSIFICATION_TYPE": "U", "NORAD_CAT_ID": 54225, "ELEMENT_SET_NO": 999, "REV_AT_EPOCH": 562, "BSTAR": 0, "MEAN_MOTION_DOT": 1.07e-06, "MEAN_MOTION_DDOT": 0}, "tle": {"line1": "1 54225U 22146A   25349.06101439  .00000107  00000+0  00000+0 0  9996", "line2": "2 54225   0.0491 234.7020 0001677 301.0277 303.1958  1.00271037  5626"}}, "geometry": {"type": "Point", "coordinates": [78.92114481041266, 0.005437099718870199]}}, {"type": "Feature", "properties": {"norad_id": 54259, "name": "EUTELSAT 10B", "group": "eutelsat", "lat": 0.0036773869527629843, "lon": 75.91410942211463, "alt_km": 35784.631122096805, "timestamp": "2025-12-15T22:44:28.595493+00:00", "meta": {"OBJECT_NAME": "EUTELSAT 10B", "OBJECT_ID": "2022-157A", "EPOCH": "2025-12-15T02:27:38.721600", "MEAN_MOTION": 1.00271342, "ECCENTRICITY": 6.636e-05, "INCLINATION": 0.0625, "RA_OF_ASC_NODE": 99.1776, "ARG_OF_PERICENTER": 34.3761, "MEAN_ANOMALY": 357.3382, "EPHEMERIS_TYPE": 0, "CLASSIFICATION_TYPE": "U", "NORAD_CAT_ID": 54259, "ELEMENT_SET_NO": 999, "REV_AT_EPOCH": 1118, "BSTAR": 0, "MEAN_MOTION_DOT": 8.9e-07, "MEAN_MOTION_DDOT": 0}, "tle": {"line1": "1 54259U 22157A   25349.10253150  .00000089  00000+0  00000+0 0  9997", "line2": "2 54259   0.0625  99.1776 0000663  34.3761 357.3382  1.00271342 11180"}}, "geometry": {"type": "Point", "coordinates": [75.91410942211463, 0.0036773869527629843]}}, {"type": "Feature", "properties": {"norad_id": 59346, "name": "EUTELSAT 36D", "group": "eutelsat", "lat": 0.04076432152706144, "lon": 101.78530374026687, "alt_km": 35786.34494865526, "timestamp": "2025-12-15T22:44:28.595505+00:00", "meta": {"OBJECT_NAME": "EUTELSAT 36D", "OBJECT_ID": "2024-059A", "EPOCH": "2025-12-15T06:42:39.084192", "MEAN_MOTION": 1.00269916, "ECCENTRICITY": 3.484e-05, "INCLINATION": 0.0225, "RA_OF_ASC_NODE": 351.573, "ARG_OF_PERICENTER": 26.5024, "MEAN_ANOMALY": 202.6068, "EPHEMERIS_TYPE": 0, "CLASSIFICATION_TYPE": "U", "NORAD_CAT_ID": 59346, "ELEMENT_SET_NO": 999, "REV_AT_EPOCH": 630, "BSTAR": 0, "MEAN_MOTION_DOT": 0, "MEAN_MOTION_DDOT": 0}, "tle": {"line1": "1 59346U 24059A   25349.27961903  .00000000  00000+0  00000+0 0  9995", "line2": "2 59346   0.0225 351.5730 0000348  26.5024 202.6068  1.00269916  6303"}}, "geometry": {"type": "Point", "coordinates": [101.78530374026687, 0.04076432152706144]}}]}